STARLINK-31850          
1 59903U 24100U   26068.51703459 -.00000093  00000+0  61506-5 0  9994
2 59903  42.9977 126.0864 0001005 264.5512  95.5225 15.27564513101070
FLOCK 4G-10             
1 62670U 25009BP  26068.70827885  .00013952  00000+0  52624-3 0  9995
2 62670  97.3967 150.5883 0003469 341.4844  18.6269 15.27155944121340
